MONOLITH                
1 49052U 21068A   26068.54548855  .00008348  00000+0  53656-3 0  9993
2 49052  37.0220 141.2957 0002679 131.6464 228.4511 15.08010119252226
STARLINK-5447           
1 54779U 22175X   26068.19674391 -.00000815  00000+0 -33152-4 0  9994
2 54779  53.2191  31.4361 0001268  93.8484 266.2653 15.08831851180050
